CCSDS_OMM_VERS = 2.0
CREATION_DATE  = 
ORIGINATOR     = 

OBJECT_NAME    = STARLINK-36450
OBJECT_ID      = 2026-002N
CENTER_NAME    = EARTH
REF_FRAME      = TEME
TIME_SYSTEM    = UTC
MEAN_ELEMENT_THEORY = SGP/SGP4

EPOCH          = 2026-01-13T22:00:01.999584
MEAN_MOTION    = 15.92128027
ECCENTRICITY   = .00018885
INCLINATION    = 42.9982
RA_OF_ASC_NODE = 282.5052
ARG_OF_PERICENTER = 268.7198
MEAN_ANOMALY   = 28.6182

EPHEMERIS_TYPE = 0
CLASSIFICATION_TYPE = U
NORAD_CAT_ID   = 67317
ELEMENT_SET_NO = 999
REV_AT_EPOCH   = 277
BSTAR          = -.42048968E-2
MEAN_MOTION_DOT = -.1452091E-1
MEAN_MOTION_DDOT = .59860164E-3

CCSDS_OMM_VERS = 2.0
CREATION_DATE  = 
ORIGINATOR     = 

OBJECT_NAME    = STARLINK-36498
OBJECT_ID      = 2026-002P
CENTER_NAME    = EARTH
REF_FRAME      = TEME
TIME_SYSTEM    = UTC
MEAN_ELEMENT_THEORY = SGP/SGP4

EPOCH          = 2026-01-13T22:00:01.999584
MEAN_MOTION    = 15.92222739
ECCENTRICITY   = .00018909
INCLINATION    = 42.9980
RA_OF_ASC_NODE = 282.4934
ARG_OF_PERICENTER = 265.6248
MEAN_ANOMALY   = 36.3551

EPHEMERIS_TYPE = 0
CLASSIFICATION_TYPE = U
NORAD_CAT_ID   = 67318
ELEMENT_SET_NO = 999
REV_AT_EPOCH   = 267
BSTAR          = -.42282837E-2
MEAN_MOTION_DOT = -.1467218E-1
MEAN_MOTION_DDOT = .61065081E-3

CCSDS_OMM_VERS = 2.0
CREATION_DATE  = 
ORIGINATOR     = 

OBJECT_NAME    = STARLINK-36470
OBJECT_ID      = 2026-002Q
CENTER_NAME    = EARTH
REF_FRAME      = TEME
TIME_SYSTEM    = UTC
MEAN_ELEMENT_THEORY = SGP/SGP4

EPOCH          = 2026-01-13T22:00:01.999584
MEAN_MOTION    = 15.92177035
ECCENTRICITY   = .00018473
INCLINATION    = 42.9981
RA_OF_ASC_NODE = 282.4992
ARG_OF_PERICENTER = 266.8672
MEAN_ANOMALY   = 32.7939

EPHEMERIS_TYPE = 0
CLASSIFICATION_TYPE = U
NORAD_CAT_ID   = 67319
ELEMENT_SET_NO = 999
REV_AT_EPOCH   = 267
BSTAR          = -.42288473E-2
MEAN_MOTION_DOT = -.1463946E-1
MEAN_MOTION_DDOT = .60788571E-3

CCSDS_OMM_VERS = 2.0
CREATION_DATE  = 
ORIGINATOR     = 

OBJECT_NAME    = STARLINK-36500
OBJECT_ID      = 2026-002R
CENTER_NAME    = EARTH
REF_FRAME      = TEME
TIME_SYSTEM    = UTC
MEAN_ELEMENT_THEORY = SGP/SGP4

EPOCH          = 2026-01-13T22:00:01.999584
MEAN_MOTION    = 15.92264843
ECCENTRICITY   = .00017915
INCLINATION    = 42.9982
RA_OF_ASC_NODE = 282.4882
ARG_OF_PERICENTER = 266.8219
MEAN_ANOMALY   = 37.4100

EPHEMERIS_TYPE = 0
CLASSIFICATION_TYPE = U
NORAD_CAT_ID   = 67320
ELEMENT_SET_NO = 999
REV_AT_EPOCH   = 267
BSTAR          = -.41994016E-2
MEAN_MOTION_DOT = -.1460456E-1
MEAN_MOTION_DDOT = .60574452E-3

CCSDS_OMM_VERS = 2.0
CREATION_DATE  = 
ORIGINATOR     = 

OBJECT_NAME    = STARLINK-36462
OBJECT_ID      = 2026-002S
CENTER_NAME    = EARTH
REF_FRAME      = TEME
TIME_SYSTEM    = UTC
MEAN_ELEMENT_THEORY = SGP/SGP4

EPOCH          = 2026-01-13T22:00:01.999584
MEAN_MOTION    = 15.92363462
ECCENTRICITY   = .00017381
INCLINATION    = 42.9983
RA_OF_ASC_NODE = 282.4759
ARG_OF_PERICENTER = 266.3045
MEAN_ANOMALY   = 42.7092

EPHEMERIS_TYPE = 0
CLASSIFICATION_TYPE = U
NORAD_CAT_ID   = 67321
ELEMENT_SET_NO = 999
REV_AT_EPOCH   = 261
BSTAR          = -.42240322E-2
MEAN_MOTION_DOT = -.1476403E-1
MEAN_MOTION_DDOT = .61852787E-3

CCSDS_OMM_VERS = 2.0
CREATION_DATE  = 
ORIGINATOR     = 

OBJECT_NAME    = STARLINK-36434
OBJECT_ID      = 2026-002T
CENTER_NAME    = EARTH
REF_FRAME      = TEME
TIME_SYSTEM    = UTC
MEAN_ELEMENT_THEORY = SGP/SGP4

EPOCH          = 2026-01-13T22:00:01.999584
MEAN_MOTION    = 15.92312415
ECCENTRICITY   = .0001768
INCLINATION    = 42.9983
RA_OF_ASC_NODE = 282.4801
ARG_OF_PERICENTER = 266.0965
MEAN_ANOMALY   = 41.2289

EPHEMERIS_TYPE = 0
CLASSIFICATION_TYPE = U
NORAD_CAT_ID   = 67322
ELEMENT_SET_NO = 999
REV_AT_EPOCH   = 261
BSTAR          = -.4205203E-2
MEAN_MOTION_DOT = -.1466038E-1
MEAN_MOTION_DDOT = .61028089E-3

CCSDS_OMM_VERS = 2.0
CREATION_DATE  = 
ORIGINATOR     = 

OBJECT_NAME    = STARLINK-36497
OBJECT_ID      = 2026-002U
CENTER_NAME    = EARTH
REF_FRAME      = TEME
TIME_SYSTEM    = UTC
MEAN_ELEMENT_THEORY = SGP/SGP4

EPOCH          = 2026-01-13T22:00:01.999584
MEAN_MOTION    = 15.92402577
ECCENTRICITY   = .00018006
INCLINATION    = 42.9984
RA_OF_ASC_NODE = 282.4699
ARG_OF_PERICENTER = 264.8870
MEAN_ANOMALY   = 46.4981

EPHEMERIS_TYPE = 0
CLASSIFICATION_TYPE = U
NORAD_CAT_ID   = 67323
ELEMENT_SET_NO = 999
REV_AT_EPOCH   = 267
BSTAR          = -.42080219E-2
MEAN_MOTION_DOT = -.1473864E-1
MEAN_MOTION_DDOT = .61681159E-3

CCSDS_OMM_VERS = 2.0
CREATION_DATE  = 
ORIGINATOR     = 

OBJECT_NAME    = STARLINK-36471
OBJECT_ID      = 2026-002V
CENTER_NAME    = EARTH
REF_FRAME      = TEME
TIME_SYSTEM    = UTC
MEAN_ELEMENT_THEORY = SGP/SGP4

EPOCH          = 2026-01-13T22:00:01.999584
MEAN_MOTION    = 15.92530884
ECCENTRICITY   = .00017789
INCLINATION    = 42.9988
RA_OF_ASC_NODE = 282.4556
ARG_OF_PERICENTER = 268.4434
MEAN_ANOMALY   = 48.6637

EPHEMERIS_TYPE = 0
CLASSIFICATION_TYPE = U
NORAD_CAT_ID   = 67324
ELEMENT_SET_NO = 999
REV_AT_EPOCH   = 261
BSTAR          = -.43405666E-2
MEAN_MOTION_DOT = -.1529829E-1
MEAN_MOTION_DDOT = .66132108E-3

CCSDS_OMM_VERS = 2.0
CREATION_DATE  = 
ORIGINATOR     = 

OBJECT_NAME    = STARLINK-36473
OBJECT_ID      = 2026-002W
CENTER_NAME    = EARTH
REF_FRAME      = TEME
TIME_SYSTEM    = UTC
MEAN_ELEMENT_THEORY = SGP/SGP4

EPOCH          = 2026-01-13T22:00:01.999584
MEAN_MOTION    = 15.92461909
ECCENTRICITY   = .00017703
INCLINATION    = 42.9984
RA_OF_ASC_NODE = 282.4622
ARG_OF_PERICENTER = 265.9620
MEAN_ANOMALY   = 48.5459

EPHEMERIS_TYPE = 0
CLASSIFICATION_TYPE = U
NORAD_CAT_ID   = 67325
ELEMENT_SET_NO = 999
REV_AT_EPOCH   = 277
BSTAR          = -.42491399E-2
MEAN_MOTION_DOT = -.1492656E-1
MEAN_MOTION_DDOT = .63168627E-3

CCSDS_OMM_VERS = 2.0
CREATION_DATE  = 
ORIGINATOR     = 

OBJECT_NAME    = STARLINK-36430
OBJECT_ID      = 2026-002X
CENTER_NAME    = EARTH
REF_FRAME      = TEME
TIME_SYSTEM    = UTC
MEAN_ELEMENT_THEORY = SGP/SGP4

EPOCH          = 2026-01-13T22:00:01.999584
MEAN_MOTION    = 15.92658723
ECCENTRICITY   = .00018281
INCLINATION    = 42.9984
RA_OF_ASC_NODE = 282.4422
ARG_OF_PERICENTER = 265.2295
MEAN_ANOMALY   = 57.2067

EPHEMERIS_TYPE = 0
CLASSIFICATION_TYPE = U
NORAD_CAT_ID   = 67326
ELEMENT_SET_NO = 999
REV_AT_EPOCH   = 277
BSTAR          = -.45733028E-2
MEAN_MOTION_DOT = -.1621524E-1
MEAN_MOTION_DDOT = .73697513E-3

CCSDS_OMM_VERS = 2.0
CREATION_DATE  = 
ORIGINATOR     = 

OBJECT_NAME    = STARLINK-36501
OBJECT_ID      = 2026-002Y
CENTER_NAME    = EARTH
REF_FRAME      = TEME
TIME_SYSTEM    = UTC
MEAN_ELEMENT_THEORY = SGP/SGP4

EPOCH          = 2026-01-13T22:00:01.999584
MEAN_MOTION    = 15.92594259
ECCENTRICITY   = .00017143
INCLINATION    = 42.9987
RA_OF_ASC_NODE = 282.4491
ARG_OF_PERICENTER = 268.1302
MEAN_ANOMALY   = 51.5344

EPHEMERIS_TYPE = 0
CLASSIFICATION_TYPE = U
NORAD_CAT_ID   = 67327
ELEMENT_SET_NO = 999
REV_AT_EPOCH   = 261
BSTAR          = -.4443231E-2
MEAN_MOTION_DOT = -.157069E-1
MEAN_MOTION_DDOT = .69458032E-3

CCSDS_OMM_VERS = 2.0
CREATION_DATE  = 
ORIGINATOR     = 

OBJECT_NAME    = STARLINK-36489
OBJECT_ID      = 2026-002Z
CENTER_NAME    = EARTH
REF_FRAME      = TEME
TIME_SYSTEM    = UTC
MEAN_ELEMENT_THEORY = SGP/SGP4

EPOCH          = 2026-01-13T22:00:01.999584
MEAN_MOTION    = 15.92728455
ECCENTRICITY   = .00019329
INCLINATION    = 42.9983
RA_OF_ASC_NODE = 282.4342
ARG_OF_PERICENTER = 265.8550
MEAN_ANOMALY   = 59.5848

EPHEMERIS_TYPE = 0
CLASSIFICATION_TYPE = U
NORAD_CAT_ID   = 67328
ELEMENT_SET_NO = 999
REV_AT_EPOCH   = 277
BSTAR          = -.47760408E-2
MEAN_MOTION_DOT = -.1698634E-1
MEAN_MOTION_DDOT = .80343397E-3

CCSDS_OMM_VERS = 2.0
CREATION_DATE  = 
ORIGINATOR     = 

OBJECT_NAME    = STARLINK-36496
OBJECT_ID      = 2026-002AA
CENTER_NAME    = EARTH
REF_FRAME      = TEME
TIME_SYSTEM    = UTC
MEAN_ELEMENT_THEORY = SGP/SGP4

EPOCH          = 2026-01-13T22:00:01.999584
MEAN_MOTION    = 15.92824519
ECCENTRICITY   = .00018956
INCLINATION    = 42.9982
RA_OF_ASC_NODE = 282.4215
ARG_OF_PERICENTER = 266.9545
MEAN_ANOMALY   = 63.4604

EPHEMERIS_TYPE = 0
CLASSIFICATION_TYPE = U
NORAD_CAT_ID   = 67329
ELEMENT_SET_NO = 999
REV_AT_EPOCH   = 259
BSTAR          = -.49291489E-2
MEAN_MOTION_DOT = -.1761113E-1
MEAN_MOTION_DDOT = .85971642E-3

CCSDS_OMM_VERS = 2.0
CREATION_DATE  = 
ORIGINATOR     = 

OBJECT_NAME    = STARLINK-36483
OBJECT_ID      = 2026-002AB
CENTER_NAME    = EARTH
REF_FRAME      = TEME
TIME_SYSTEM    = UTC
MEAN_ELEMENT_THEORY = SGP/SGP4

EPOCH          = 2026-01-13T22:00:01.999584
MEAN_MOTION    = 15.92858651
ECCENTRICITY   = .00017957
INCLINATION    = 42.9983
RA_OF_ASC_NODE = 282.4054
ARG_OF_PERICENTER = 266.2248
MEAN_ANOMALY   = 70.4381

EPHEMERIS_TYPE = 0
CLASSIFICATION_TYPE = U
NORAD_CAT_ID   = 67330
ELEMENT_SET_NO = 999
REV_AT_EPOCH   = 277
BSTAR          = -.49501145E-2
MEAN_MOTION_DOT = -.1771609E-1
MEAN_MOTION_DDOT = .86951758E-3

CCSDS_OMM_VERS = 2.0
CREATION_DATE  = 
ORIGINATOR     = 

OBJECT_NAME    = STARLINK-36494
OBJECT_ID      = 2026-002AC
CENTER_NAME    = EARTH
REF_FRAME      = TEME
TIME_SYSTEM    = UTC
MEAN_ELEMENT_THEORY = SGP/SGP4

EPOCH          = 2026-01-13T22:00:01.999584
MEAN_MOTION    = 15.92778145
ECCENTRICITY   = .00018773
INCLINATION    = 42.9982
RA_OF_ASC_NODE = 282.4274
ARG_OF_PERICENTER = 264.4005
MEAN_ANOMALY   = 63.6791

EPHEMERIS_TYPE = 0
CLASSIFICATION_TYPE = U
NORAD_CAT_ID   = 67331
ELEMENT_SET_NO = 999
REV_AT_EPOCH   = 277
BSTAR          = -.48723676E-2
MEAN_MOTION_DOT = -.1736899E-1
MEAN_MOTION_DDOT = .83759841E-3

